OBJECT_NAME,OBJECT_ID,EPOCH,MEAN_MOTION,ECCENTRICITY,INCLINATION,RA_OF_ASC_NODE,ARG_OF_PERICENTER,MEAN_ANOMALY,EPHEMERIS_TYPE,CLASSIFICATION_TYPE,NORAD_CAT_ID,ELEMENT_SET_NO,REV_AT_EPOCH,BSTAR,MEAN_MOTION_DOT,MEAN_MOTION_DDOT
ELEKTRO-L 3,2019-095A,2026-07-19T03:57:21.795840,1.00271683,.00014812,0.3374,82.3610,18.7927,331.1277,0,U,44903,999,2402,0,-.102E-5,0
GONETS-M 14,2019-096A,2026-07-19T21:23:41.946144,12.42870753,.0014447,82.5209,64.3618,81.0623,279.2091,0,U,44905,999,29774,-.52129E-3,-.62E-6,0
GONETS-M 15,2019-096B,2026-07-19T20:09:56.958912,12.42883027,.0016203,82.5229,64.8602,102.6943,257.5949,0,U,44906,999,29770,-.53605E-3,-.64E-6,0
GONETS-M 16,2019-096C,2026-07-19T20:47:03.873984,12.42892370,.0011215,82.5175,63.7811,141.4989,218.6892,0,U,44907,999,29769,-.61565E-3,-.75E-6,0
RS-44 & BREEZE-KM R/B,2019-096E,2026-07-19T18:18:25.915680,12.79748859,.021844,82.5239,318.0601,68.3655,294.0559,0,U,44909,999,30651,-.31876E-4,.5E-7,0
JILIN-1 KUANFU 01,2020-003A,2026-07-19T19:19:32.658240,15.10881602,.000972,97.5016,274.1249,180.9086,179.2128,0,U,45016,999,36025,.95974E-4,.1535E-4,0
XINGYUN-2 01,2020-028A,2026-07-19T21:41:15.919008,15.11927991,.0010983,97.4888,192.6602,90.5172,269.7317,0,U,45602,999,33978,.70646E-4,.1148E-4,0
XINGYUN-2 02,2020-028B,2026-07-19T19:43:40.063008,15.11649450,.001154,97.5078,206.2426,151.0003,209.1871,0,U,45603,999,33976,.89517E-4,.146E-4,0
HAIYANG-1D,2020-036A,2026-07-19T19:59:40.283232,14.34182159,.0003911,98.4561,141.8045,61.9358,298.2222,0,U,45721,999,31965,-.28929E-4,-.124E-5,0
M2 PATHFINDER,2020-037E,2026-07-19T18:19:58.576224,15.04799480,.0012479,97.8141,32.3642,48.1064,312.1224,0,U,45727,999,33039,.73151E-4,.969E-5,0
GAOFEN DUOMO (GFDM),2020-042A,2026-07-19T20:43:37.434144,14.76805511,.0010329,97.7723,259.5579,337.6453,22.4306,0,U,45856,999,32583,.56133E-4,.345E-5,0
ZIYUAN 3-03 (ZY 3-03),2020-051A,2026-07-19T20:59:00.675168,15.21216736,.0003114,97.5356,267.8960,222.3773,137.7222,0,U,45939,999,33231,.51854E-4,.1086E-4,0
NEMO-HD,2020-061F,2026-07-19T20:08:15.914112,15.45197863,.0001032,97.1896,262.4729,109.8932,250.2429,0,U,46277,999,32702,.13949E-3,.6532E-4,0
NAPA-1,2020-061BA,2026-07-19T17:26:08.117376,15.72452869,.0002676,97.2430,276.0804,168.7588,191.3736,0,U,46320,999,32684,.42592E-3,.56779E-3,0
JILIN-1 GAOFEN 3E,2020-065D,2026-07-19T19:35:51.069984,15.67674683,.0009442,97.2201,254.2719,56.8126,303.4040,0,U,46457,999,32486,.46352E-3,.50793E-3,0
JILIN-1 GAOFEN 3F,2020-065E,2026-07-19T20:10:59.416608,15.64310561,.0010714,97.2160,251.4617,41.8854,318.3223,0,U,46458,999,32480,.40364E-3,.38622E-3,0
JILIN-1 GAOFEN 3G,2020-065F,2026-07-19T19:33:59.270976,15.77714644,.0006032,97.2207,258.8549,251.9391,108.1219,0,U,46459,999,32507,.523E-3,.87976E-3,0
JILIN-1 GAOFEN 3H,2020-065G,2026-07-19T19:25:04.456704,15.72866622,.0007022,97.2161,254.9463,187.8655,172.2500,0,U,46460,999,32500,.4918E-3,.66897E-3,0
HAIYANG-2C,2020-066A,2026-07-19T20:13:55.117920,13.83373634,.0007388,65.9974,133.9799,237.1721,122.8636,0,U,46469,999,29401,.1463E-3,.8E-6,0
HJ-2A,2020-067A,2026-07-19T19:53:47.632128,14.76550195,.0004514,97.8815,278.4285,142.9260,217.2263,0,U,46478,999,31307,-.1568E-4,-.159E-5,0
HJ-2B,2020-067B,2026-07-19T20:46:33.361824,14.76514774,.0002092,97.8881,279.5120,101.6199,258.5246,0,U,46479,999,31308,.86056E-4,.55E-5,0
GONETS-M 17,2020-068A,2026-07-19T19:27:52.081344,12.42873934,.0021633,82.5020,327.2071,326.1993,33.7706,0,U,46486,999,26321,-.1834E-3,-.16E-6,0
GONETS-M 18,2020-068B,2026-07-19T20:31:25.869792,12.42875235,.0018884,82.4974,326.2851,322.5654,37.4109,0,U,46487,999,26320,.57466E-3,.89E-6,0
GONETS-M 19,2020-068C,2026-07-19T19:55:22.503648,12.42892803,.0012825,82.4998,326.7571,339.6357,20.4210,0,U,46488,999,26330,-.40236E-4,.4E-7,0
DEKART,2020-068H,2026-07-19T19:24:33.452928,15.38011856,.0009762,97.8747,212.4323,157.6043,202.5629,0,U,46493,999,32078,.18362E-3,.6783E-4,0
NORBI,2020-068J,2026-07-19T18:38:45.914784,15.49750712,.0008571,97.8618,219.6472,130.2404,229.9597,0,U,46494,999,32125,.25274E-3,.13961E-3,0
SALSAT,2020-068K,2026-07-19T10:52:42.083040,15.30206359,.00096718,97.8865,205.4942,177.8105,182.3178,0,U,46495,999,32029,.13371977E-3,.3827E-4,0
ICEYE-X6,2020-068M,2026-07-19T21:52:00.594336,15.04680768,.0006803,98.0993,196.1530,356.4990,3.6186,0,U,46497,999,31815,.87712E-4,.1166E-4,0
