ELEKTRO-L 3             
1 44903U 19095A   26200.16483560 -.00000102  00000+0  00000+0 0  9999
2 44903   0.3374  82.3610 0001481  18.7927 331.1277  1.00271683 24027
GONETS-M 14             
1 44905U 19096A   26200.89145771 -.00000062  00000+0 -52129-3 0  9990
2 44905  82.5209  64.3618 0014447  81.0623 279.2091 12.42870753297746
GONETS-M 15             
1 44906U 19096B   26200.84024258 -.00000064  00000+0 -53605-3 0  9994
2 44906  82.5229  64.8602 0016203 102.6943 257.5949 12.42883027297709
GONETS-M 16             
1 44907U 19096C   26200.86601706 -.00000075  00000+0 -61565-3 0  9992
2 44907  82.5175  63.7811 0011215 141.4989 218.6892 12.42892370297693
RS-44 & BREEZE-KM R/B   
1 44909U 19096E   26200.76279995  .00000005  00000+0 -31876-4 0  9999
2 44909  82.5239 318.0601 0218440  68.3655 294.0559 12.79748859306517
JILIN-1 KUANFU 01       
1 45016U 20003A   26200.80523910  .00001535  00000+0  95974-4 0  9990
2 45016  97.5016 274.1249 0009720 180.9086 179.2128 15.10881602360253
XINGYUN-2 01            
1 45602U 20028A   26200.90365647  .00001148  00000+0  70646-4 0  9999
2 45602  97.4888 192.6602 0010983  90.5172 269.7317 15.11927991339784
XINGYUN-2 02            
1 45603U 20028B   26200.82199147  .00001460  00000+0  89517-4 0  9995
2 45603  97.5078 206.2426 0011540 151.0003 209.1871 15.11649450339761
HAIYANG-1D              
1 45721U 20036A   26200.83310513 -.00000124  00000+0 -28929-4 0  9996
2 45721  98.4561 141.8045 0003911  61.9358 298.2222 14.34182159319652
M2 PATHFINDER           
1 45727U 20037E   26200.76387241  .00000969  00000+0  73151-4 0  9999
2 45727  97.8141  32.3642 0012479  48.1064 312.1224 15.04799480330393
GAOFEN DUOMO (GFDM)     
1 45856U 20042A   26200.86362771  .00000345  00000+0  56133-4 0  9999
2 45856  97.7723 259.5579 0010329 337.6453  22.4306 14.76805511325839
ZIYUAN 3-03 (ZY 3-03)   
1 45939U 20051A   26200.87431337  .00001086  00000+0  51854-4 0  9995
2 45939  97.5356 267.8960 0003114 222.3773 137.7222 15.21216736332310
NEMO-HD                 
1 46277U 20061F   26200.83907308  .00006532  00000+0  13949-3 0  9997
2 46277  97.1896 262.4729 0001032 109.8932 250.2429 15.45197863327025
NAPA-1                  
1 46320U 20061BA  26200.72648284  .00056779  00000+0  42592-3 0  9993
2 46320  97.2430 276.0804 0002676 168.7588 191.3736 15.72452869326845
JILIN-1 GAOFEN 3E       
1 46457U 20065D   26200.81656331  .00050793  00000+0  46352-3 0  9998
2 46457  97.2201 254.2719 0009442  56.8126 303.4040 15.67674683324866
JILIN-1 GAOFEN 3F       
1 46458U 20065E   26200.84096547  .00038622  00000+0  40364-3 0  9993
2 46458  97.2160 251.4617 0010714  41.8854 318.3223 15.64310561324804
JILIN-1 GAOFEN 3G       
1 46459U 20065F   26200.81526934  .00087976  00000+0  52300-3 0  9998
2 46459  97.2207 258.8549 0006032 251.9391 108.1219 15.77714644325074
JILIN-1 GAOFEN 3H       
1 46460U 20065G   26200.80907936  .00066897  00000+0  49180-3 0  9995
2 46460  97.2161 254.9463 0007022 187.8655 172.2500 15.72866622325004
HAIYANG-2C              
1 46469U 20066A   26200.84299905  .00000080  00000+0  14630-3 0  9993
2 46469  65.9974 133.9799 0007388 237.1721 122.8636 13.83373634294016
HJ-2A                   
1 46478U 20067A   26200.82902352 -.00000159  00000+0 -15680-4 0  9995
2 46478  97.8815 278.4285 0004514 142.9260 217.2263 14.76550195313073
HJ-2B                   
1 46479U 20067B   26200.86566391  .00000550  00000+0  86056-4 0  9997
2 46479  97.8881 279.5120 0002092 101.6199 258.5246 14.76514774313082
GONETS-M 17             
1 46486U 20068A   26200.81101946 -.00000016  00000+0 -18340-3 0  9991
2 46486  82.5020 327.2071 0021633 326.1993  33.7706 12.42873934263210
GONETS-M 18             
1 46487U 20068B   26200.85516053  .00000089  00000+0  57466-3 0  9995
2 46487  82.4974 326.2851 0018884 322.5654  37.4109 12.42875235263204
GONETS-M 19             
1 46488U 20068C   26200.83012157  .00000004  00000+0 -40236-4 0  9996
2 46488  82.4998 326.7571 0012825 339.6357  20.4210 12.42892803263309
DEKART                  
1 46493U 20068H   26200.80872052  .00006783  00000+0  18362-3 0  9990
2 46493  97.8747 212.4323 0009762 157.6043 202.5629 15.38011856320781
NORBI                   
1 46494U 20068J   26200.77692031  .00013961  00000+0  25274-3 0  9990
2 46494  97.8618 219.6472 0008571 130.2404 229.9597 15.49750712321251
SALSAT                  
1 46495U 20068K   26200.45326485  .00003827  00000+0  13372-3 0  9999
2 46495  97.8865 205.4942 0009671 177.8105 182.3178 15.30206359320291
ICEYE-X6                
1 46497U 20068M   26200.91111799  .00001166  00000+0  87712-4 0  9996
2 46497  98.0993 196.1530 0006803 356.4990   3.6186 15.04680768318155
